{
  "norad_id": 42934,
  "name": "AMAZONAS 5",
  "history": [
    {
      "epoch": "2026-03-28T11:04:19.697376Z",
      "apogee_km": 35807.7752987255,
      "perigee_km": 35765.78747299685,
      "latitude_deg": 0.011107571939641915,
      "longitude_deg": -61.03203479343859,
      "height_km": 35773.14817846092,
      "semi_major_axis_km": 42164.91838586118,
      "eccentricity": 0.0004979,
      "inclination_deg": 0.0462,
      "raan_deg": 320.3954,
      "arg_perigee_deg": 21.8938,
      "mean_anomaly_deg": 308.6635,
      "mean_motion_rev_day": 1.0027112
    },
    {
      "epoch": "2026-03-28T23:07:38.424288Z",
      "apogee_km": 35808.48640954417,
      "perigee_km": 35765.140840301756,
      "latitude_deg": -0.013495491695626152,
      "longitude_deg": -60.940021708628635,
      "height_km": 35799.80873120593,
      "semi_major_axis_km": 42164.95062492297,
      "eccentricity": 0.000514,
      "inclination_deg": 0.0465,
      "raan_deg": 319.096,
      "arg_perigee_deg": 24.7222,
      "mean_anomaly_deg": 128.4585,
      "mean_motion_rev_day": 1.00271005
    },
    {
      "epoch": "2026-03-30T02:26:01.551840Z",
      "apogee_km": 35807.69167061623,
      "perigee_km": 35765.99893611466,
      "latitude_deg": -0.02749656887745954,
      "longitude_deg": -60.9872451751935,
      "height_km": 35807.26272012006,
      "semi_major_axis_km": 42164.98230336545,
      "eccentricity": 0.0004944,
      "inclination_deg": 0.0465,
      "raan_deg": 322.5627,
      "arg_perigee_deg": 21.477,
      "mean_anomaly_deg": 178.9541,
      "mean_motion_rev_day": 1.00270892
    },
    {
      "epoch": "2026-03-30T07:34:02.009856Z",
      "apogee_km": 35807.70016657453,
      "perigee_km": 35766.0605253447,
      "latitude_deg": -0.008119687714608198,
      "longitude_deg": -61.04478131604344,
      "height_km": 35791.45577856879,
      "semi_major_axis_km": 42165.01734595961,
      "eccentricity": 0.00049377,
      "inclination_deg": 0.0461,
      "raan_deg": 323.0228,
      "arg_perigee_deg": 21.0846,
      "mean_anomaly_deg": 256.0983,
      "mean_motion_rev_day": 1.00270767
    },
    {
      "epoch": "2026-03-30T21:15:35.180640Z",
      "apogee_km": 35807.64255430929,
      "perigee_km": 35766.233077634024,
      "latitude_deg": -0.004607110647913348,
      "longitude_deg": -60.93812213563832,
      "height_km": 35790.461106052884,
      "semi_major_axis_km": 42165.07481597166,
      "eccentricity": 0.00049104,
      "inclination_deg": 0.0458,
      "raan_deg": 325.5149,
      "arg_perigee_deg": 19.3216,
      "mean_anomaly_deg": 101.3172,
      "mean_motion_rev_day": 1.00270562
    },
    {
      "epoch": "2026-03-31T12:39:17.610624Z",
      "apogee_km": 35807.58880199898,
      "perigee_km": 35766.34289839091,
      "latitude_deg": 0.02265519128078431,
      "longitude_deg": -61.02406730785932,
      "height_km": 35768.15035369837,
      "semi_major_axis_km": 42165.10285019495,
      "eccentricity": 0.0004891,
      "inclination_deg": 0.0457,
      "raan_deg": 328.7885,
      "arg_perigee_deg": 16.5997,
      "mean_anomaly_deg": 332.3221,
      "mean_motion_rev_day": 1.00270462
    },
    {
      "epoch": "2026-04-01T10:54:27.744192Z",
      "apogee_km": 35807.32957532989,
      "perigee_km": 35766.39579363619,
      "latitude_deg": 0.014537599962262776,
      "longitude_deg": -61.04521865676738,
      "height_km": 35774.54779804357,
      "semi_major_axis_km": 42164.99968448304,
      "eccentricity": 0.0004854,
      "inclination_deg": 0.0451,
      "raan_deg": 321.2323,
      "arg_perigee_deg": 25.9126,
      "mean_anomaly_deg": 305.2726,
      "mean_motion_rev_day": 1.0027083
    },
    {
      "epoch": "2026-04-01T23:34:38.795808Z",
      "apogee_km": 35807.388465385695,
      "perigee_km": 35766.97047962781,
      "latitude_deg": -0.018110802691512124,
      "longitude_deg": -60.96714011783524,
      "height_km": 35801.19847739496,
      "semi_major_axis_km": 42165.316472506755,
      "eccentricity": 0.00047928,
      "inclination_deg": 0.0445,
      "raan_deg": 322.8928,
      "arg_perigee_deg": 24.1676,
      "mean_anomaly_deg": 135.919,
      "mean_motion_rev_day": 1.002697
    },
    {
      "epoch": "2026-04-04T05:39:05.476320Z",
      "apogee_km": 35806.86094828774,
      "perigee_km": 35766.26561814906,
      "latitude_deg": -0.03285643954638553,
      "longitude_deg": -61.04098297436495,
      "height_km": 35800.36253471628,
      "semi_major_axis_km": 42164.7002832184,
      "eccentricity": 0.00048139,
      "inclination_deg": 0.0433,
      "raan_deg": 312.3523,
      "arg_perigee_deg": 38.3585,
      "mean_anomaly_deg": 225.6106,
      "mean_motion_rev_day": 1.00271898
    },
    {
      "epoch": "2026-04-05T12:27:19.145376Z",
      "apogee_km": 35807.436168617525,
      "perigee_km": 35767.25246492264,
      "latitude_deg": 0.026336441632637323,
      "longitude_deg": -61.03234725757421,
      "height_km": 35769.6849125349,
      "semi_major_axis_km": 42165.481316770085,
      "eccentricity": 0.0004765,
      "inclination_deg": 0.0432,
      "raan_deg": 310.4025,
      "arg_perigee_deg": 40.6967,
      "mean_anomaly_deg": 328.5445,
      "mean_motion_rev_day": 1.00269112
    },
    {
      "epoch": "2026-04-05T19:18:05.952384Z",
      "apogee_km": 35807.23936459604,
      "perigee_km": 35766.97155804548,
      "latitude_deg": 0.024956152688356048,
      "longitude_deg": -60.953291461044444,
      "height_km": 35779.848199663575,
      "semi_major_axis_km": 42165.24246132076,
      "eccentricity": 0.0004775,
      "inclination_deg": 0.0425,
      "raan_deg": 310.959,
      "arg_perigee_deg": 40.9905,
      "mean_anomaly_deg": 70.6693,
      "mean_motion_rev_day": 1.00269964
    }
  ]
}